[
  { "name": "AF", "dial_code": "+93", "code": "AF" },
  { "name": "ZA", "dial_code": "+27", "code": "ZA" },
  { "name": "AL", "dial_code": "+355", "code": "AL" },
  { "name": "DE", "dial_code": "+49", "code": "DE" },
  { "name": "AD", "dial_code": "+376", "code": "AD" },
  { "name": "AO", "dial_code": "+244", "code": "AO" },
  { "name": "SA", "dial_code": "+966", "code": "SA" },
  { "name": "AR", "dial_code": "+54", "code": "AR" },
  { "name": "AM", "dial_code": "+374", "code": "AM" },
  { "name": "AU", "dial_code": "+61", "code": "AU" },
  { "name": "AT", "dial_code": "+43", "code": "AT" },
  { "name": "BD", "dial_code": "+880", "code": "BD" },
  { "name": "BE", "dial_code": "+32", "code": "BE" },
  { "name": "BO", "dial_code": "+591", "code": "BO" },
  { "name": "BR", "dial_code": "+55", "code": "BR" },
  { "name": "CV", "dial_code": "+238", "code": "CV" },
  { "name": "CM", "dial_code": "+237", "code": "CM" },
  { "name": "CA", "dial_code": "+1", "code": "CA" },
  { "name": "CL", "dial_code": "+56", "code": "CL" },
  { "name": "CN", "dial_code": "+86", "code": "CN" },
  { "name": "CO", "dial_code": "+57", "code": "CO" },
  { "name": "CD", "dial_code": "+243", "code": "CD" },
  { "name": "CI", "dial_code": "+225", "code": "CI" },
  { "name": "CR", "dial_code": "+506", "code": "CR" },
  { "name": "HR", "dial_code": "+385", "code": "HR" },
  { "name": "CU", "dial_code": "+53", "code": "CU" },
  { "name": "DK", "dial_code": "+45", "code": "DK" },
  { "name": "EG", "dial_code": "+20", "code": "EG" },
  { "name": "AE", "dial_code": "+971", "code": "AE" },
  { "name": "EC", "dial_code": "+593", "code": "EC" },
  { "name": "ES", "dial_code": "+34", "code": "ES" },
  { "name": "US", "dial_code": "+1", "code": "US" },
  { "name": "EE", "dial_code": "+372", "code": "EE" },
  { "name": "ET", "dial_code": "+251", "code": "ET" },
  { "name": "PH", "dial_code": "+63", "code": "PH" },
  { "name": "FI", "dial_code": "+358", "code": "FI" },
  { "name": "FR", "dial_code": "+33", "code": "FR" },
  { "name": "GH", "dial_code": "+233", "code": "GH" },
  { "name": "GR", "dial_code": "+30", "code": "GR" },
  { "name": "GW", "dial_code": "+245", "code": "GW" },
  { "name": "HT", "dial_code": "+509", "code": "HT" },
  { "name": "NL", "dial_code": "+31", "code": "NL" },
  { "name": "HU", "dial_code": "+36", "code": "HU" },
  { "name": "IN", "dial_code": "+91", "code": "IN" },
  { "name": "ID", "dial_code": "+62", "code": "ID" },
  { "name": "IR", "dial_code": "+98", "code": "IR" },
  { "name": "IE", "dial_code": "+353", "code": "IE" },
  { "name": "IL", "dial_code": "+972", "code": "IL" },
  { "name": "IT", "dial_code": "+39", "code": "IT" },
  { "name": "JP", "dial_code": "+81", "code": "JP" },
  { "name": "LU", "dial_code": "+352", "code": "LU" },
  { "name": "MA", "dial_code": "+212", "code": "MA" },
  { "name": "MX", "dial_code": "+52", "code": "MX" },
  { "name": "MZ", "dial_code": "+258", "code": "MZ" },
  { "name": "NG", "dial_code": "+234", "code": "NG" },
  { "name": "NO", "dial_code": "+47", "code": "NO" },
  { "name": "NZ", "dial_code": "+64", "code": "NZ" },
  { "name": "PE", "dial_code": "+51", "code": "PE" },
  { "name": "PL", "dial_code": "+48", "code": "PL" },
  { "name": "PT", "dial_code": "+351", "code": "PT" },
  { "name": "KE", "dial_code": "+254", "code": "KE" },
  { "name": "GB", "dial_code": "+44", "code": "GB" },
  { "name": "RU", "dial_code": "+7", "code": "RU" },
  { "name": "SN", "dial_code": "+221", "code": "SN" },
  { "name": "SG", "dial_code": "+65", "code": "SG" },
  { "name": "SE", "dial_code": "+46", "code": "SE" },
  { "name": "CH", "dial_code": "+41", "code": "CH" },
  { "name": "TR", "dial_code": "+90", "code": "TR" },
  { "name": "UA", "dial_code": "+380", "code": "UA" },
  { "name": "UY", "dial_code": "+598", "code": "UY" },
  { "name": "VE", "dial_code": "+58", "code": "VE" },
  { "name": "ZM", "dial_code": "+260", "code": "ZM" },
  { "name": "ZW", "dial_code": "+263", "code": "ZW" }
]
